{"type": "FeatureCollection", "features": [ {"type": "Feature", "properties": {"norad_id": 39620, "name": "COSMOS 2492 (754)", "group": "gnss", "lat": -65.27707379718099, "lon": -135.79240089043498, "alt_km": 19110.37621131395, "timestamp": "2025-12-13T20:38:51.245971+00:00", "meta": {"OBJECT_NAME": "COSMOS 2492 (754)", "OBJECT_ID": "2014-012A", "EPOCH": "2025-12-12T02:29:11.116896", "MEAN_MOTION": 2.1310296, "ECCENTRICITY": 0.00141989, "INCLINATION": 65.408, "RA_OF_ASC_NODE": 320.2923, "ARG_OF_PERICENTER": 311.6032, "MEAN_ANOMALY": 48.2746, "EPHEMERIS_TYPE": 0, "CLASSIFICATION_TYPE": "U", "NORAD_CAT_ID": 39620, "ELEMENT_SET_NO": 999, "REV_AT_EPOCH": 9125, "BSTAR": 0, "MEAN_MOTION_DOT": -5.5e-07, "MEAN_MOTION_DDOT": 0}, "tle": {"line1": "1 39620U 14012A   25346.10360089 -.00000055  00000+0  00000+0 0  9994", "line2": "2 39620  65.4080 320.2923 0014198 311.6032  48.2746  2.13102960 91257"}}, "geometry": {"type": "Point", "coordinates": [-135.79240089043498, -65.27707379718099]}}, {"type": "Feature", "properties": {"norad_id": 39635, "name": "IRNSS-1B", "group": "gnss", "lat": -11.584605247635702, "lon": 85.09675468696834, "alt_km": 35713.20944277649, "timestamp": "2025-12-13T20:38:51.245985+00:00", "meta": {"OBJECT_NAME": "IRNSS-1B", "OBJECT_ID": "2014-017A", "EPOCH": "2025-12-11T18:54:44.030304", "MEAN_MOTION": 1.00285038, "ECCENTRICITY": 0.00181492, "INCLINATION": 29.2271, "RA_OF_ASC_NODE": 243.6214, "ARG_OF_PERICENTER": 227.0185, "MEAN_ANOMALY": 309.1991, "EPHEMERIS_TYPE": 0, "CLASSIFICATION_TYPE": "U", "NORAD_CAT_ID": 39635, "ELEMENT_SET_NO": 999, "REV_AT_EPOCH": 4291, "BSTAR": 0, "MEAN_MOTION_DOT": 1.07e-06, "MEAN_MOTION_DDOT": 0}, "tle": {"line1": "1 39635U 14017A   25345.78800961  .00000107  00000+0  00000+0 0  9993", "line2": "2 39635  29.2271 243.6214 0018149 227.0185 309.1991  1.00285038 42916"}}, "geometry": {"type": "Point", "coordinates": [85.09675468696834, -11.584605247635702]}}, {"type": "Feature", "properties": {"norad_id": 39727, "name": "LUCH 5V (SDCM/PRN 141)", "group": "gnss", "lat": 3.8691460652066243, "lon": 127.11632056619541, "alt_km": 35803.30272398573, "timestamp": "2025-12-13T20:38:51.245997+00:00", "meta": {"OBJECT_NAME": "LUCH 5V (SDCM/PRN 141)", "OBJECT_ID": "2014-023A", "EPOCH": "2025-12-13T03:37:35.732064", "MEAN_MOTION": 1.00269087, "ECCENTRICITY": 0.00045748, "INCLINATION": 4.6707, "RA_OF_ASC_NODE": 71.5351, "ARG_OF_PERICENTER": 206.6475, "MEAN_ANOMALY": 313.0453, "EPHEMERIS_TYPE": 0, "CLASSIFICATION_TYPE": "U", "NORAD_CAT_ID": 39727, "ELEMENT_SET_NO": 999, "REV_AT_EPOCH": 4249, "BSTAR": 0, "MEAN_MOTION_DOT": -2.56e-06, "MEAN_MOTION_DDOT": 0}, "tle": {"line1": "1 39727U 14023A   25347.15110801 -.00000256  00000+0  00000+0 0  9998", "line2": "2 39727   4.6707  71.5351 0004574 206.6475 313.0453  1.00269087 42497"}}, "geometry": {"type": "Point", "coordinates": [127.11632056619541, 3.8691460652066243]}}, {"type": "Feature", "properties": {"norad_id": 39741, "name": "GPS BIIF-6  (PRN 06)", "group": "gnss", "lat": -56.35747360646751, "lon": -118.49716612910039, "alt_km": 20124.917251158495, "timestamp": "2025-12-13T20:38:51.246008+00:00", "meta": {"OBJECT_NAME": "GPS BIIF-6  (PRN 06)", "OBJECT_ID": "2014-026A", "EPOCH": "2025-12-12T23:49:07.978944", "MEAN_MOTION": 2.00561385, "ECCENTRICITY": 0.00391904, "INCLINATION": 56.5834, "RA_OF_ASC_NODE": 338.7665, "ARG_OF_PERICENTER": 318.6983, "MEAN_ANOMALY": 41.0184, "EPHEMERIS_TYPE": 0, "CLASSIFICATION_TYPE": "U", "NORAD_CAT_ID": 39741, "ELEMENT_SET_NO": 999, "REV_AT_EPOCH": 8480, "BSTAR": 0, "MEAN_MOTION_DOT": -8.6e-07, "MEAN_MOTION_DDOT": 0}, "tle": {"line1": "1 39741U 14026A   25346.99245346 -.00000086  00000+0  00000+0 0  9992", "line2": "2 39741  56.5834 338.7665 0039190 318.6983  41.0184  2.00561385 84803"}}, "geometry": {"type": "Point", "coordinates": [-118.49716612910039, -56.35747360646751]}}, {"type": "Feature", "properties": {"norad_id": 40001, "name": "COSMOS 2500 (755)", "group": "gnss", "lat": 39.57023593976515, "lon": 117.67912453452006, "alt_km": 19122.67699099211, "timestamp": "2025-12-13T20:38:51.246020+00:00", "meta": {"OBJECT_NAME": "COSMOS 2500 (755)", "OBJECT_ID": "2014-032A", "EPOCH": "2025-12-12T17:52:53.552928", "MEAN_MOTION": 2.13105799, "ECCENTRICITY": 0.00082294, "INCLINATION": 65.343, "RA_OF_ASC_NODE": 320.0321, "ARG_OF_PERICENTER": 219.0153, "MEAN_ANOMALY": 140.9247, "EPHEMERIS_TYPE": 0, "CLASSIFICATION_TYPE": "U", "NORAD_CAT_ID": 40001, "ELEMENT_SET_NO": 999, "REV_AT_EPOCH": 8948, "BSTAR": 0, "MEAN_MOTION_DOT": -5.8e-07, "MEAN_MOTION_DDOT": 0}, "tle": {"line1": "1 40001U 14032A   25346.74506427 -.00000058  00000+0  00000+0 0  9992", "line2": "2 40001  65.3430 320.0321 0008229 219.0153 140.9247  2.13105799 89484"}}, "geometry": {"type": "Point", "coordinates": [117.67912453452006, 39.57023593976515]}}, {"type": "Feature", "properties": {"norad_id": 40105, "name": "GPS BIIF-7  (PRN 09)", "group": "gnss", "lat": -19.700776988548956, "lon": -69.76498020893267, "alt_km": 20175.18121157012, "timestamp": "2025-12-13T20:38:51.246031+00:00", "meta": {"OBJECT_NAME": "GPS BIIF-7  (PRN 09)", "OBJECT_ID": "2014-045A", "EPOCH": "2025-12-12T01:59:18.865536", "MEAN_MOTION": 2.00572516, "ECCENTRICITY": 0.00326941, "INCLINATION": 55.2287, "RA_OF_ASC_NODE": 95.9251, "ARG_OF_PERICENTER": 119.8618, "MEAN_ANOMALY": 240.4523, "EPHEMERIS_TYPE": 0, "CLASSIFICATION_TYPE": "U", "NORAD_CAT_ID": 40105, "ELEMENT_SET_NO": 999, "REV_AT_EPOCH": 8232, "BSTAR": 0, "MEAN_MOTION_DOT": -9e-08, "MEAN_MOTION_DDOT": 0}, "tle": {"line1": "1 40105U 14045A   25346.08285724 -.00000009  00000+0  00000+0 0  9998", "line2": "2 40105  55.2287  95.9251 0032694 119.8618 240.4523  2.00572516 82323"}}, "geometry": {"type": "Point", "coordinates": [-69.76498020893267, -19.700776988548956]}}, {"type": "Feature", "properties": {"norad_id": 40128, "name": "GSAT0201 (GALILEO 5)", "group": "gnss", "lat": -47.13660975966316, "lon": -147.99623009244547, "alt_km": 22624.330893190225, "timestamp": "2025-12-13T20:38:51.246042+00:00", "meta": {"OBJECT_NAME": "GSAT0201 (GALILEO 5)", "OBJECT_ID": "2014-050A", "EPOCH": "2025-12-09T03:42:58.517280", "MEAN_MOTION": 1.8551953, "ECCENTRICITY": 0.164755, "INCLINATION": 49.0809, "RA_OF_ASC_NODE": 281.2097, "ARG_OF_PERICENTER": 172.1436, "MEAN_ANOMALY": 190.8359, "EPHEMERIS_TYPE": 0, "CLASSIFICATION_TYPE": "U", "NORAD_CAT_ID": 40128, "ELEMENT_SET_NO": 999, "REV_AT_EPOCH": 7479, "BSTAR": 0, "MEAN_MOTION_DOT": -7.1e-07, "MEAN_MOTION_DDOT": 0}, "tle": {"line1": "1 40128U 14050A   25343.15484395 -.00000071  00000+0  00000+0 0  9998", "line2": "2 40128  49.0809 281.2097 1647550 172.1436 190.8359  1.85519530 74797"}}, "geometry": {"type": "Point", "coordinates": [-147.99623009244547, -47.13660975966316]}}, {"type": "Feature", "properties": {"norad_id": 40129, "name": "GSAT0202 (GALILEO 6)", "group": "gnss", "lat": 47.01905154595454, "lon": -11.604478994591473, "alt_km": 21438.54203915927, "timestamp": "2025-12-13T20:38:51.246053+00:00", "meta": {"OBJECT_NAME": "GSAT0202 (GALILEO 6)", "OBJECT_ID": "2014-050B", "EPOCH": "2025-12-11T13:36:31.827456", "MEAN_MOTION": 1.85520366, "ECCENTRICITY": 0.16485158, "INCLINATION": 49.0938, "RA_OF_ASC_NODE": 280.195, "ARG_OF_PERICENTER": 172.988, "MEAN_ANOMALY": 189.677, "EPHEMERIS_TYPE": 0, "CLASSIFICATION_TYPE": "U", "NORAD_CAT_ID": 40129, "ELEMENT_SET_NO": 999, "REV_AT_EPOCH": 7700, "BSTAR": 0, "MEAN_MOTION_DOT": -9.2e-07, "MEAN_MOTION_DDOT": 0}, "tle": {"line1": "1 40129U 14050B   25345.56703504 -.00000092  00000+0  00000+0 0  9995", "line2": "2 40129  49.0938 280.1950 1648515 172.9880 189.6770  1.85520366 77009"}}, "geometry": {"type": "Point", "coordinates": [-11.604478994591473, 47.01905154595454]}}, {"type": "Feature", "properties": {"norad_id": 40269, "name": "IRNSS-1C", "group": "gnss", "lat": 2.364583658541159, "lon": 115.38243035860201, "alt_km": 35713.15931430561, "timestamp": "2025-12-13T20:38:51.246065+00:00", "meta": {"OBJECT_NAME": "IRNSS-1C", "OBJECT_ID": "2014-061A", "EPOCH": "2025-12-12T20:37:44.961024", "MEAN_MOTION": 1.00275251, "ECCENTRICITY": 0.00181348, "INCLINATION": 6.0413, "RA_OF_ASC_NODE": 92.6203, "ARG_OF_PERICENTER": 2.1122, "MEAN_ANOMALY": 19.4179, "EPHEMERIS_TYPE": 0, "CLASSIFICATION_TYPE": "U", "NORAD_CAT_ID": 40269, "ELEMENT_SET_NO": 999, "REV_AT_EPOCH": 4082, "BSTAR": 0, "MEAN_MOTION_DOT": -1.5e-06, "MEAN_MOTION_DDOT": 0}, "tle": {"line1": "1 40269U 14061A   25346.85954816 -.00000150  00000+0  00000+0 0  9994", "line2": "2 40269   6.0413  92.6203 0018134   2.1122  19.4179  1.00275251 40822"}}, "geometry": {"type": "Point", "coordinates": [115.38243035860201, 2.364583658541159]}}, {"type": "Feature", "properties": {"norad_id": 40294, "name": "GPS BIIF-8  (PRN 03)", "group": "gnss", "lat": -51.01901468975282, "lon": -15.652406467034778, "alt_km": 20306.08336729287, "timestamp": "2025-12-13T20:38:51.246079+00:00", "meta": {"OBJECT_NAME": "GPS BIIF-8  (PRN 03)", "OBJECT_ID": "2014-068A", "EPOCH": "2025-12-12T11:01:19.657056", "MEAN_MOTION": 2.00564803, "ECCENTRICITY": 0.00607742, "INCLINATION": 56.8576, "RA_OF_ASC_NODE": 38.1568, "ARG_OF_PERICENTER": 69.1795, "MEAN_ANOMALY": 291.5212, "EPHEMERIS_TYPE": 0, "CLASSIFICATION_TYPE": "U", "NORAD_CAT_ID": 40294, "ELEMENT_SET_NO": 999, "REV_AT_EPOCH": 8146, "BSTAR": 0, "MEAN_MOTION_DOT": -9.5e-07, "MEAN_MOTION_DDOT": 0}, "tle": {"line1": "1 40294U 14068A   25346.45925529 -.00000095  00000+0  00000+0 0  9992", "line2": "2 40294  56.8576  38.1568 0060774  69.1795 291.5212  2.00564803 81469"}}, "geometry": {"type": "Point", "coordinates": [-15.652406467034778, -51.01901468975282]}}]}